[{"Address":"1530 S Olive St","City":"Los Angeles","Zip":90015,"ER Service Level":"Not Applicable","License Type":"Clinic","Discription":"Community Clinic","Lat":34.0354,"Long":-118.26522},{"Address":"8405 Beverly Blvd","City":"Los Angeles","Zip":90048,"ER Service Level":"Not Applicable","License Type":"Clinic","Discription":"Community Clinic","Lat":34.07608,"Long":-118.37347},{"Address":"2100 W 3rd St","City":"Los Angeles","Zip":90057,"ER Service Level":"Not Applicable","License Type":"Clinic","Discription":"Community Clinic","Lat":34.06299,"Long":-118.27297},{"Address":"4415 S Central Ave","City":"Los Angeles","Zip":90011,"ER Service Level":"Not Applicable","License Type":"Clinic","Discription":"Community Clinic","Lat":34.0034,"Long":-118.25653},{"Address":"1080 N Western Ave","City":"Los Angeles","Zip":90029,"ER Service Level":"Not Applicable","License Type":"Clinic","Discription":"Community Clinic","Lat":34.09026,"Long":-118.30914},{"Address":"1828 E Cesar E Chavez Ave","City":"Los Angeles","Zip":90033,"ER Service Level":"Not Applicable","License Type":"Clinic","Discription":"Community Clinic","Lat":34.05023,"Long":-118.21552},{"Address":"5427 Whittier Blvd","City":"Los Angeles","Zip":90022,"ER Service Level":"Not Applicable","License Type":"Clinic","Discription":"Community Clinic","Lat":34.01966,"Long":-118.15359},{"Address":"5901 W Olympic Blvd","City":"Los Angeles","Zip":90036,"ER Service Level":"Not Applicable","License Type":"Clinic","Discription":"Community Clinic","Lat":34.05763,"Long":-118.36029},{"Address":"2409 N Broadway","City":"Los Angeles","Zip":90031,"ER Service Level":"Not Applicable","License Type":"Clinic","Discription":"Community Clinic","Lat":34.07366,"Long":-118.21652},{"Address":"2100 W 3rd St","City":"Los Angeles","Zip":90057,"ER Service Level":"Not Applicable","License Type":"Clinic","Discription":"Community Clinic","Lat":34.06244,"Long":-118.27357},{"Address":"2972 Wilshire Blvd","City":"Los Angeles","Zip":90010,"ER Service Level":"Not Applicable","License Type":"Clinic","Discription":"Community Clinic","Lat":34.06166,"Long":-118.28621},{"Address":"1014 N Vermont Ave","City":"Los Angeles","Zip":90029,"ER Service Level":"Not Applicable","License Type":"Clinic","Discription":"Community Clinic","Lat":34.09004,"Long":-118.2917},{"Address":"7891 La Tijera Blvd","City":"Los Angeles","Zip":90045,"ER Service Level":"Not Applicable","License Type":"Clinic","Discription":"Community Clinic","Lat":33.96524,"Long":-118.38541},{"Address":"10300 Compton Ave","City":"Los Angeles","Zip":90002,"ER Service Level":"Not Applicable","License Type":"Clinic","Discription":"Community Clinic","Lat":33.94307,"Long":-118.24618},{"Address":"150 N Reno St","City":"Los Angeles","Zip":90026,"ER Service Level":"Not Applicable","License Type":"Clinic","Discription":"Community Clinic","Lat":34.07274,"Long":-118.28041},{"Address":"767 N Hill St","City":"Los Angeles","Zip":90012,"ER Service Level":"Not Applicable","License Type":"Clinic","Discription":"Community Clinic","Lat":34.06253,"Long":-118.23973},{"Address":"6000 N Figueroa St","City":"Los Angeles","Zip":90042,"ER Service Level":"Not Applicable","License Type":"Clinic","Discription":"Community Clinic","Lat":34.11147,"Long":-118.18891},{"Address":"2120 E 6th St","City":"Los Angeles","Zip":90023,"ER Service Level":"Not Applicable","License Type":"Clinic","Discription":"Community Clinic","Lat":34.03869,"Long":-118.21656},{"Address":"4425 S Central Ave","City":"Los Angeles","Zip":90011,"ER Service Level":"Not Applicable","License Type":"Clinic","Discription":"Community Clinic","Lat":34.00307,"Long":-118.256861},{"Address":"1058 S Vermont Ave","City":"Los Angeles","Zip":90006,"ER Service Level":"Not Applicable","License Type":"Clinic","Discription":"Community Clinic","Lat":34.05138,"Long":-118.29157},{"Address":"545 S San Pedro St","City":"Los Angeles","Zip":90013,"ER Service Level":"Not Applicable","License Type":"Clinic","Discription":"Community Clinic","Lat":34.04328,"Long":-118.24457},{"Address":"123 S Alvarado St","City":"Los Angeles","Zip":90057,"ER Service Level":"Not Applicable","License Type":"Clinic","Discription":"Community Clinic","Lat":34.06598,"Long":-118.27081},{"Address":"1300 N Vermont Ave","City":"Los Angeles","Zip":90027,"ER Service Level":"Not Applicable","License Type":"Clinic","Discription":"Community Clinic","Lat":34.09569,"Long":-118.29173},{"Address":"5425 Pomona Blvd","City":"Los Angeles","Zip":90022,"ER Service Level":"Not Applicable","License Type":"Clinic","Discription":"Community Clinic","Lat":34.03338,"Long":-118.1495},{"Address":"6043 Hollywood Blvd","City":"Los Angeles","Zip":90028,"ER Service Level":"Not Applicable","License Type":"Clinic","Discription":"Community Clinic","Lat":34.10169,"Long":-118.32155},{"Address":"1625 Schrader Blvd","City":"Los Angeles","Zip":90028,"ER Service Level":"Not Applicable","License Type":"Clinic","Discription":"Community Clinic","Lat":34.10026,"Long":-118.33249},{"Address":"1701 Zonal Ave","City":"Los Angeles","Zip":90033,"ER Service Level":"Not Applicable","License Type":"Clinic","Discription":"Community Clinic","Lat":34.06219,"Long":-118.21066},{"Address":"5970 S Central Ave","City":"Los Angeles","Zip":90001,"ER Service Level":"Not Applicable","License Type":"Clinic","Discription":"Community Clinic","Lat":33.98559,"Long":-118.25642},{"Address":"3580 Wilshire Blvd","City":"Los Angeles","Zip":90010,"ER Service Level":"Not Applicable","License Type":"Clinic","Discription":"Community Clinic","Lat":34.06171,"Long":-118.30252},{"Address":"4618 Fountain Ave","City":"Los Angeles","Zip":90029,"ER Service Level":"Not Applicable","License Type":"Clinic","Discription":"Community Clinic","Lat":34.09558,"Long":-118.29034},{"Address":"311 Winston St","City":"Los Angeles","Zip":90013,"ER Service Level":"Not Applicable","License Type":"Clinic","Discription":"Community Clinic","Lat":34.04541,"Long":-118.24471},{"Address":"1530 Hillhurst Ave","City":"Los Angeles","Zip":90027,"ER Service Level":"Not Applicable","License Type":"Clinic","Discription":"Community Clinic","Lat":34.09942,"Long":-118.28737},{"Address":"3834 S Western Ave","City":"Los Angeles","Zip":90062,"ER Service Level":"Not Applicable","License Type":"Clinic","Discription":"Community Clinic","Lat":34.01659,"Long":-118.30888},{"Address":"4448 York Blvd","City":"Los Angeles","Zip":90041,"ER Service Level":"Not Applicable","License Type":"Clinic","Discription":"Community Clinic","Lat":34.12374,"Long":-118.21886},{"Address":"6368 Hollywood Blvd","City":"Los Angeles","Zip":90028,"ER Service Level":"Not Applicable","License Type":"Clinic","Discription":"Community Clinic","Lat":34.10159,"Long":-118.32873},{"Address":"837 W Imperial Hwy","City":"Los Angeles","Zip":90044,"ER Service Level":"Not Applicable","License Type":"Clinic","Discription":"Community Clinic","Lat":33.93101,"Long":-118.2905},{"Address":"2515 W Pico Blvd","City":"Los Angeles","Zip":90006,"ER Service Level":"Not Applicable","License Type":"Clinic","Discription":"Community Clinic","Lat":34.0473,"Long":-118.29211},{"Address":"3756 Santa Rosalia Dr","City":"Los Angeles","Zip":90008,"ER Service Level":"Not Applicable","License Type":"Clinic","Discription":"Community Clinic","Lat":34.00939,"Long":-118.33916},{"Address":"3920 Eagle Rock Blvd","City":"Los Angeles","Zip":90065,"ER Service Level":"Not Applicable","License Type":"Clinic","Discription":"Community Clinic","Lat":34.11935,"Long":-118.23013},{"Address":"3939 Tracy St","City":"Los Angeles","Zip":90027,"ER Service Level":"Not Applicable","License Type":"Clinic","Discription":"Community Clinic","Lat":34.1073,"Long":-118.27709},{"Address":"4815 Valley Blvd","City":"Los Angeles","Zip":90032,"ER Service Level":"Not Applicable","License Type":"Clinic","Discription":"Community Clinic","Lat":34.066249,"Long":-118.1798873},{"Address":"711 W Florence Ave","City":"Los Angeles","Zip":90044,"ER Service Level":"Not Applicable","License Type":"Clinic","Discription":"Community Clinic","Lat":33.97468,"Long":-118.28627},{"Address":"1926 Beverly Blvd","City":"Los Angeles","Zip":90057,"ER Service Level":"Not Applicable","License Type":"Clinic","Discription":"Community Clinic","Lat":34.06586,"Long":-118.26859},{"Address":"4920 Avalon Blvd","City":"Los Angeles","Zip":90011,"ER Service Level":"Not Applicable","License Type":"Clinic","Discription":"Community Clinic","Lat":33.99833,"Long":-118.26521},{"Address":"4842 Hollywood Blvd","City":"Los Angeles","Zip":90027,"ER Service Level":"Not Applicable","License Type":"Clinic","Discription":"Community Clinic","Lat":34.10176,"Long":-118.29519},{"Address":"5205 Melrose Ave","City":"Los Angeles","Zip":90038,"ER Service Level":"Not Applicable","License Type":"Clinic","Discription":"Community Clinic","Lat":34.08354,"Long":-118.3139},{"Address":"6000 N Figueroa St","City":"Los Angeles","Zip":90042,"ER Service Level":"Not Applicable","License Type":"Clinic","Discription":"Community Clinic","Lat":34.11147,"Long":-118.18891},{"Address":"2032 Marengo St","City":"Los Angeles","Zip":90033,"ER Service Level":"Not Applicable","License Type":"Clinic","Discription":"Community Clinic","Lat":34.05669,"Long":-118.20764},{"Address":"2020 E 1st St","City":"Los Angeles","Zip":90033,"ER Service Level":"Not Applicable","License Type":"Clinic","Discription":"Community Clinic","Lat":34.04512,"Long":-118.2143},{"Address":"3945 Whittier Blvd","City":"Los Angeles","Zip":90023,"ER Service Level":"Not Applicable","License Type":"Clinic","Discription":"Community Clinic","Lat":34.02395,"Long":-118.18786},{"Address":"8520 S Broadway","City":"Los Angeles","Zip":90003,"ER Service Level":"Not Applicable","License Type":"Clinic","Discription":"Community Clinic","Lat":33.96118,"Long":-118.27826},{"Address":"184 Bimini Pl","City":"Los Angeles","Zip":90004,"ER Service Level":"Not Applicable","License Type":"Clinic","Discription":"Community Clinic","Lat":34.07084,"Long":-118.29051},{"Address":"4650 W Sunset Blvd","City":"Los Angeles","Zip":90027,"ER Service Level":"Not Applicable","License Type":"Clinic","Discription":"Community Clinic","Lat":34.09812,"Long":-118.29063},{"Address":"5701 S Hoover St","City":"Los Angeles","Zip":90037,"ER Service Level":"Not Applicable","License Type":"Clinic","Discription":"Community Clinic","Lat":33.989949,"Long":-118.2874208},{"Address":"2411 N Broadway","City":"Los Angeles","Zip":90031,"ER Service Level":"Not Applicable","License Type":"Clinic","Discription":"Community Clinic","Lat":34.07366,"Long":-118.21638},{"Address":"3727 W 6th St","City":"Los Angeles","Zip":90020,"ER Service Level":"Not Applicable","License Type":"Clinic","Discription":"Community Clinic","Lat":34.06359,"Long":-118.30369},{"Address":"1578 Colorado Blvd","City":"Los Angeles","Zip":90041,"ER Service Level":"Not Applicable","License Type":"Clinic","Discription":"Community Clinic","Lat":34.13948,"Long":-118.20067},{"Address":"403 W Adams Blvd","City":"Los Angeles","Zip":90011,"ER Service Level":"Not Applicable","License Type":"Clinic","Discription":"Community Clinic","Lat":34.02713,"Long":-118.27371},{"Address":"1127 Wilshire Blvd","City":"Los Angeles","Zip":90017,"ER Service Level":"Not Applicable","License Type":"Clinic","Discription":"Community Clinic","Lat":34.05273,"Long":-118.26416},{"Address":"1125 W 6th St","City":"Los Angeles","Zip":90017,"ER Service Level":"Not Applicable","License Type":"Clinic","Discription":"Community Clinic","Lat":34.0544,"Long":-118.26284},{"Address":"2707 S Central Ave","City":"Los Angeles","Zip":90011,"ER Service Level":"Not Applicable","License Type":"Clinic","Discription":"Community Clinic","Lat":34.01754,"Long":-118.25549},{"Address":"11500 W Olympic Blvd","City":"Los Angeles","Zip":90064,"ER Service Level":"Not Applicable","License Type":"Clinic","Discription":"Community Clinic","Lat":34.0361,"Long":-118.44465},{"Address":"2928 E Cesar E Chavez Ave","City":"Los Angeles","Zip":90033,"ER Service Level":"Not Applicable","License Type":"Clinic","Discription":"Community Clinic","Lat":34.04365,"Long":-118.20068},{"Address":"507 S Atlantic Blvd","City":"Los Angeles","Zip":90022,"ER Service Level":"Not Applicable","License Type":"Clinic","Discription":"Community Clinic","Lat":34.026876,"Long":-118.155355},{"Address":"5068 Whittier Blvd","City":"Los Angeles","Zip":90022,"ER Service Level":"Not Applicable","License Type":"Clinic","Discription":"Community Clinic","Lat":34.02105,"Long":-118.16038},{"Address":"1910 Magnolia Ave","City":"Los Angeles","Zip":90007,"ER Service Level":"Not Applicable","License Type":"Clinic","Discription":"Community Clinic","Lat":34.03963,"Long":-118.2864},{"Address":"4837 Huntington Dr N","City":"Los Angeles","Zip":90032,"ER Service Level":"Not Applicable","License Type":"Clinic","Discription":"Community Clinic","Lat":34.08601,"Long":-118.17905},{"Address":"6505 8th Ave","City":"Los Angeles","Zip":90043,"ER Service Level":"Not Applicable","License Type":"Clinic","Discription":"Community Clinic","Lat":33.98053,"Long":-118.32654},{"Address":"701 W Cesar E Chavez Ave","City":"Los Angeles","Zip":90012,"ER Service Level":"Not Applicable","License Type":"Clinic","Discription":"Community Clinic","Lat":34.0607,"Long":-118.24392},{"Address":"5015 W Pico Blvd","City":"Los Angeles","Zip":90019,"ER Service Level":"Not Applicable","License Type":"Clinic","Discription":"Community Clinic","Lat":34.04782,"Long":-118.34646},{"Address":"808 W 58th St","City":"Los Angeles","Zip":90037,"ER Service Level":"Not Applicable","License Type":"Clinic","Discription":"Community Clinic","Lat":33.98966,"Long":-118.28749},{"Address":"400 W 30th St","City":"Los Angeles","Zip":90007,"ER Service Level":"Not Applicable","License Type":"Clinic","Discription":"Community Clinic","Lat":34.0235402,"Long":-118.2757011},{"Address":"201 S Alvarado St","City":"Los Angeles","Zip":90057,"ER Service Level":"Not Applicable","License Type":"Clinic","Discription":"Community Clinic","Lat":34.06393,"Long":-118.27211},{"Address":"522 S San Pedro St","City":"Los Angeles","Zip":90013,"ER Service Level":"Not Applicable","License Type":"Clinic","Discription":"Community Clinic","Lat":34.0435591,"Long":-118.2442608},{"Address":"1400 S Grand Ave","City":"Los Angeles","Zip":90015,"ER Service Level":"Not Applicable","License Type":"Clinic","Discription":"Community Clinic","Lat":34.03692,"Long":-118.26551},{"Address":"4618 Fountain Ave","City":"Los Angeles","Zip":90029,"ER Service Level":"Not Applicable","License Type":"Clinic","Discription":"Community Clinic","Lat":34.09559,"Long":-118.29013},{"Address":"4618 Fountain Ave","City":"Los Angeles","Zip":90029,"ER Service Level":"Not Applicable","License Type":"Clinic","Discription":"Community Clinic","Lat":34.09559,"Long":-118.29013},{"Address":"1005 E Washington Blvd","City":"Los Angeles","Zip":90021,"ER Service Level":"Not Applicable","License Type":"Clinic","Discription":"Community Clinic","Lat":34.02584,"Long":-118.25316},{"Address":"3637 S LA Brea Ave","City":"Los Angeles","Zip":90016,"ER Service Level":"Not Applicable","License Type":"Clinic","Discription":"Community Clinic","Lat":34.0209322,"Long":-118.3556688},{"Address":"4618 Fountain Ave","City":"Los Angeles","Zip":90029,"ER Service Level":"Not Applicable","License Type":"Clinic","Discription":"Community Clinic","Lat":34.0956029,"Long":-118.290342},{"Address":"4618 Fountain Ave","City":"Los Angeles","Zip":90029,"ER Service Level":"Not Applicable","License Type":"Clinic","Discription":"Community Clinic","Lat":34.0956029,"Long":-118.290342},{"Address":"2219 E 1st St","City":"Los Angeles","Zip":90033,"ER Service Level":"Not Applicable","License Type":"Clinic","Discription":"Community Clinic","Lat":34.0446,"Long":-118.21164},{"Address":"3631 Crenshaw Blvd","City":"Los Angeles","Zip":90016,"ER Service Level":"Not Applicable","License Type":"Clinic","Discription":"Community Clinic","Lat":34.0229107,"Long":-118.3351553},{"Address":"1039 W Florence Ave","City":"Los Angeles","Zip":90044,"ER Service Level":"Not Applicable","License Type":"Clinic","Discription":"Community Clinic","Lat":33.9748826,"Long":-118.2933268},{"Address":"4139 Verdugo Rd","City":"Los Angeles","Zip":90065,"ER Service Level":"Not Applicable","License Type":"Clinic","Discription":"Community Clinic","Lat":34.12609,"Long":-118.232281},{"Address":"1300 N Vermont Ave","City":"Los Angeles","Zip":90027,"ER Service Level":"Not Applicable","License Type":"Clinic","Discription":"Community Clinic","Lat":34.096032,"Long":-118.2910096},{"Address":"10110 Juniper St","City":"Los Angeles","Zip":90002,"ER Service Level":"Not Applicable","License Type":"Clinic","Discription":"Community Clinic","Lat":33.94471,"Long":-118.23315},{"Address":"180 Union Pl","City":"Los Angeles","Zip":90026,"ER Service Level":"Not Applicable","License Type":"Clinic","Discription":"Community Clinic","Lat":34.0621979,"Long":-118.2653357},{"Address":"808 W 58th St","City":"Los Angeles","Zip":90037,"ER Service Level":"Not Applicable","License Type":"Clinic","Discription":"Community Clinic","Lat":33.9893858,"Long":-118.2876627},{"Address":"3743 S LA Brea Ave","City":"Los Angeles","Zip":90016,"ER Service Level":"Not Applicable","License Type":"Clinic","Discription":"Community Clinic","Lat":34.0192235,"Long":-118.3556598},{"Address":"4300 Crenshaw Blvd","City":"Los Angeles","Zip":90008,"ER Service Level":"Not Applicable","License Type":"Clinic","Discription":"Community Clinic","Lat":34.0053045,"Long":-118.3335485},{"Address":"4085 S Vermont Ave","City":"Los Angeles","Zip":90037,"ER Service Level":"Not Applicable","License Type":"Clinic","Discription":"Community Clinic","Lat":34.0093101,"Long":-118.2915593},{"Address":"1400 S Grand Ave","City":"Los Angeles","Zip":90015,"ER Service Level":"Not Applicable","License Type":"Clinic","Discription":"Community Clinic","Lat":34.0360682,"Long":-118.2650579},{"Address":"1920 Marengo St","City":"Los Angeles","Zip":90033,"ER Service Level":"Not Applicable","License Type":"Clinic","Discription":"Community Clinic","Lat":34.057296,"Long":-118.20969},{"Address":"456 S Main St","City":"Los Angeles","Zip":90013,"ER Service Level":"Not Applicable","License Type":"Clinic","Discription":"Community Clinic","Lat":34.04717,"Long":-118.24807},{"Address":"600 Saint Paul Ave","City":"Los Angeles","Zip":90017,"ER Service Level":"Not Applicable","License Type":"Clinic","Discription":"Community Clinic","Lat":34.053109,"Long":-118.260635},{"Address":"1005 S Central Ave","City":"Los Angeles","Zip":90021,"ER Service Level":"Not Applicable","License Type":"Clinic","Discription":"Community Clinic","Lat":34.031413,"Long":-118.244873},{"Address":"3410 Hooper Ave","City":"Los Angeles","Zip":90011,"ER Service Level":"Not Applicable","License Type":"Clinic","Discription":"Community Clinic","Lat":34.012756,"Long":-118.2521424},{"Address":"5320 S Vermont Ave","City":"Los Angeles","Zip":90037,"ER Service Level":"Not Applicable","License Type":"Clinic","Discription":"Community Clinic","Lat":33.99388,"Long":-118.29148},{"Address":"4211 Avalon Blvd","City":"Los Angeles","Zip":90011,"ER Service Level":"Not Applicable","License Type":"Clinic","Discription":"Community Clinic","Lat":34.00728,"Long":-118.26531},{"Address":"2614 S Grand Ave","City":"Los Angeles","Zip":90011,"ER Service Level":"Not Applicable","License Type":"Clinic","Discription":"Community Clinic","Lat":34.02588,"Long":-118.272618},{"Address":"316 E 111th St","City":"Los Angeles","Zip":90061,"ER Service Level":"Not Applicable","License Type":"Clinic","Discription":"Community Clinic","Lat":33.93478,"Long":-118.26892},{"Address":"7821 Avalon Blvd","City":"Los Angeles","Zip":90003,"ER Service Level":"Not Applicable","License Type":"Clinic","Discription":"Community Clinic","Lat":33.9682258,"Long":-118.2651723},{"Address":"3130 S Hill St","City":"Los Angeles","Zip":90011,"ER Service Level":"Not Applicable","License Type":"Clinic","Discription":"Community Clinic","Lat":34.02163,"Long":-118.27358},{"Address":"1776 E Century Blvd","City":"Los Angeles","Zip":90002,"ER Service Level":"Not Applicable","License Type":"Clinic","Discription":"Community Clinic","Lat":33.9451,"Long":-118.241291},{"Address":"1414 S Grand Ave","City":"Los Angeles","Zip":90015,"ER Service Level":"Not Applicable","License Type":"Clinic","Discription":"Community Clinic","Lat":34.03691,"Long":-118.26552},{"Address":"521 S Grand View St","City":"Los Angeles","Zip":90057,"ER Service Level":"Not Applicable","License Type":"Clinic","Discription":"Community Clinic","Lat":34.06082,"Long":-118.276891},{"Address":"4816 E 3rd St","City":"Los Angeles","Zip":90022,"ER Service Level":"Not Applicable","License Type":"Clinic","Discription":"Community Clinic","Lat":34.03327,"Long":-118.16034},{"Address":"1555 W 110th St","City":"Los Angeles","Zip":90047,"ER Service Level":"Not Applicable","License Type":"Clinic","Discription":"Community Clinic","Lat":33.9355,"Long":-118.30369},{"Address":"326 W 23rd St","City":"Los Angeles","Zip":90007,"ER Service Level":"Not Applicable","License Type":"Clinic","Discription":"Community Clinic","Lat":34.02939,"Long":-118.27139},{"Address":"3255 Wilshire Blvd","City":"Los Angeles","Zip":90010,"ER Service Level":"Not Applicable","License Type":"Clinic","Discription":"Community Clinic","Lat":34.06182,"Long":-118.29307},{"Address":"611 S Kingsley Dr","City":"Los Angeles","Zip":90005,"ER Service Level":"Not Applicable","License Type":"Clinic","Discription":"Community Clinic","Lat":34.0630656,"Long":-118.3031461},{"Address":"611 E Imperial Hwy","City":"Los Angeles","Zip":90059,"ER Service Level":"Not Applicable","License Type":"Clinic","Discription":"Community Clinic","Lat":33.93107,"Long":-118.26445},{"Address":"1830 W Olympic Blvd","City":"Los Angeles","Zip":90006,"ER Service Level":"Not Applicable","License Type":"Clinic","Discription":"Community Clinic","Lat":34.05055,"Long":-118.27734},{"Address":"1513 S Grand Ave","City":"Los Angeles","Zip":90015,"ER Service Level":"Not Applicable","License Type":"Clinic","Discription":"Community Clinic","Lat":34.03609,"Long":-118.26614},{"Address":"711 N Alvarado St","City":"Los Angeles","Zip":90026,"ER Service Level":"Not Applicable","License Type":"Clinic","Discription":"Community Clinic","Lat":34.07411,"Long":-118.26566},{"Address":"4700 Inglewood Blvd","City":"Los Angeles","Zip":90230,"ER Service Level":"Not Applicable","License Type":"Clinic","Discription":"Community Clinic","Lat":33.99316,"Long":-118.41519},{"Address":"3721 S La Brea Ave","City":"Los Angeles","Zip":90016,"ER Service Level":"Not Applicable","License Type":"Clinic","Discription":"Community Clinic","Lat":34.01966,"Long":-118.35563},{"Address":"5428 N Figueroa St","City":"Los Angeles","Zip":90042,"ER Service Level":"Not Applicable","License Type":"Clinic","Discription":"Community Clinic","Lat":34.10782,"Long":-118.19635},{"Address":"1900 E Slauson Ave","City":"Los Angeles","Zip":90058,"ER Service Level":"Not Applicable","License Type":"Clinic","Discription":"Community Clinic","Lat":33.98912,"Long":-118.23896},{"Address":"922 S Atlantic Blvd","City":"Los Angeles","Zip":90022,"ER Service Level":"Not Applicable","License Type":"Clinic","Discription":"Community Clinic","Lat":34.01971,"Long":-118.15747},{"Address":"1828 E Cesar E Chavez Ave","City":"Los Angeles","Zip":90033,"ER Service Level":"Not Applicable","License Type":"Clinic","Discription":"Community Clinic","Lat":34.05023,"Long":-118.21552},{"Address":"1919 W 7th St","City":"Los Angeles","Zip":90057,"ER Service Level":"Not Applicable","License Type":"Clinic","Discription":"Community Clinic","Lat":34.05574,"Long":-118.27515},{"Address":"2801 S San Pedro St","City":"Los Angeles","Zip":90011,"ER Service Level":"Not Applicable","License Type":"Clinic","Discription":"Community Clinic","Lat":34.01963,"Long":-118.26257},{"Address":"954 N Vermont Ave","City":"Los Angeles","Zip":90029,"ER Service Level":"Not Applicable","License Type":"Clinic","Discription":"Community Clinic","Lat":34.08902,"Long":-118.29171},{"Address":"607 S Atlantic Blvd","City":"Los Angeles","Zip":90022,"ER Service Level":"Not Applicable","License Type":"Clinic","Discription":"Community Clinic","Lat":34.02478,"Long":-118.15603}]